{"type":"FeatureCollection","features":[{"type":"Feature","properties":{"code":"11","nom":"Île-de-France"},"geometry":{"type":"Polygon","coordinates":[[[2.591,49.08],[2.633,49.108],[2.698,49.064],[2.724,49.08],[2.735,49.06],[2.809,49.098],[2.87,49.07],[2.969,49.091],[2.983,49.071],[3.009,49.092],[3.065,49.085],[3.07,49.118],[3.165,49.1],[3.154,49.083],[3.191,49.048],[3.167,49.012],[3.249,48.974],[3.265,48.939],[3.305,48.949],[3.33,48.909],[3.368,48.928],[3.381,48.872],[3.446,48.86],[3.461,48.839],[3.485,48.852],[3.487,48.815],[3.404,48.809],[3.444,48.791],[3.409,48.784],[3.396,48.759],[3.47,48.738],[3.478,48.698],[3.441,48.664],[3.46,48.653],[3.451,48.635],[3.533,48.647],[3.519,48.633],[3.559,48.617],[3.503,48.605],[3.516,48.59],[3.466,48.57],[3.482,48.541],[3.405,48.528],[3.435,48.496],[3.383,48.479],[3.406,48.452],[3.392,48.423],[3.422,48.416],[3.415,48.39],[3.378,48.399],[3.365,48.372],[3.283,48.382],[3.254,48.365],[3.172,48.378],[3.103,48.35],[3.05,48.36],[3.015,48.306],[3.048,48.25],[3.005,48.207],[2.937,48.183],[2.936,48.163],[2.868,48.156],[2.821,48.13],[2.801,48.131],[2.811,48.164],[2.795,48.169],[2.736,48.166],[2.755,48.146],[2.705,48.123],[2.558,48.142],[2.444,48.124],[2.483,48.165],[2.517,48.166],[2.523,48.201],[2.506,48.239],[2.43,48.256],[2.418,48.281],[2.403,48.321],[2.358,48.308],[2.328,48.333],[2.245,48.298],[2.246,48.331],[2.207,48.345],[2.181,48.312],[2.152,48.316],[2.164,48.298],[2.106,48.308],[2.041,48.284],[1.973,48.288],[1.982,48.295],[1.959,48.309],[1.979,48.313],[1.969,48.341],[1.989,48.364],[1.967,48.38],[1.978,48.402],[1.928,48.406],[1.943,48.441],[1.929,48.457],[1.872,48.44],[1.837,48.467],[1.801,48.466],[1.777,48.509],[1.787,48.554],[1.709,48.578],[1.715,48.615],[1.666,48.614],[1.643,48.651],[1.603,48.662],[1.612,48.689],[1.577,48.703],[1.627,48.748],[1.581,48.766],[1.579,48.829],[1.598,48.839],[1.546,48.872],[1.564,48.891],[1.538,48.923],[1.507,48.928],[1.511,48.954],[1.492,48.964],[1.518,48.978],[1.461,48.986],[1.48,49.008],[1.447,49.054],[1.503,49.059],[1.508,49.085],[1.521,49.068],[1.623,49.086],[1.658,49.132],[1.675,49.211],[1.709,49.241],[1.74,49.223],[1.716,49.203],[1.756,49.175],[1.803,49.185],[1.883,49.162],[2.002,49.176],[2.081,49.21],[2.169,49.164],[2.219,49.181],[2.23,49.151],[2.286,49.16],[2.311,49.186],[2.359,49.147],[2.376,49.159],[2.472,49.135],[2.503,49.118],[2.49,49.106],[2.531,49.1],[2.533,49.119],[2.557,49.124],[2.558,49.098],[2.591,49.08]]]}},{"type":"Feature","properties":{"code":"24","nom":"Centre-Val de Loire"},"geometry":{"type":"Polygon","coordinates":[[[2.875,47.52],[2.932,47.439],[2.872,47.346],[2.877,47.322],[2.983,47.261],[2.979,47.23],[3.028,47.129],[3.019,47.068],[3.075,47.029],[3.063,46.979],[3.079,46.955],[3.05,46.908],[3.07,46.853],[3.032,46.795],[2.913,46.791],[2.845,46.743],[2.847,46.727],[2.795,46.734],[2.759,46.718],[2.715,46.744],[2.702,46.718],[2.623,46.69],[2.629,46.66],[2.605,46.671],[2.567,46.654],[2.593,46.647],[2.588,46.616],[2.568,46.609],[2.6,46.595],[2.615,46.553],[2.537,46.52],[2.497,46.534],[2.36,46.516],[2.324,46.49],[2.323,46.47],[2.301,46.472],[2.281,46.42],[2.198,46.428],[2.089,46.409],[1.909,46.444],[1.84,46.426],[1.787,46.455],[1.748,46.45],[1.76,46.427],[1.727,46.39],[1.684,46.418],[1.627,46.389],[1.609,46.423],[1.546,46.393],[1.527,46.427],[1.417,46.347],[1.344,46.402],[1.314,46.395],[1.312,46.373],[1.22,46.366],[1.21,46.39],[1.177,46.384],[1.213,46.432],[1.152,46.449],[1.136,46.471],[1.157,46.469],[1.133,46.498],[1.146,46.506],[1.091,46.538],[1.023,46.536],[1.015,46.568],[0.964,46.571],[0.911,46.602],[0.894,46.629],[0.918,46.651],[0.903,46.68],[0.928,46.693],[0.913,46.726],[0.815,46.789],[0.794,46.851],[0.767,46.851],[0.77,46.865],[0.754,46.86],[0.704,46.903],[0.693,46.974],[0.633,46.987],[0.619,47.007],[0.568,47.006],[0.598,46.957],[0.505,46.96],[0.439,46.93],[0.367,46.95],[0.324,46.931],[0.292,46.989],[0.313,46.998],[0.305,47.053],[0.268,47.043],[0.268,47.068],[0.246,47.071],[0.208,47.053],[0.176,47.061],[0.201,47.091],[0.183,47.114],[0.163,47.101],[0.123,47.129],[0.081,47.119],[0.078,47.146],[0.054,47.161],[0.067,47.19],[0.053,47.197],[0.079,47.217],[0.079,47.284],[0.147,47.345],[0.14,47.362],[0.183,47.381],[0.154,47.399],[0.181,47.416],[0.181,47.453],[0.22,47.502],[0.226,47.527],[0.193,47.539],[0.234,47.578],[0.232,47.611],[0.378,47.569],[0.402,47.578],[0.364,47.621],[0.383,47.643],[0.45,47.619],[0.464,47.646],[0.597,47.673],[0.619,47.693],[0.596,47.688],[0.581,47.714],[0.628,47.752],[0.703,47.767],[0.691,47.783],[0.775,47.839],[0.757,47.886],[0.79,47.912],[0.815,47.89],[0.812,47.929],[0.849,47.943],[0.819,47.989],[0.842,48.03],[0.798,48.037],[0.794,48.07],[0.843,48.073],[0.848,48.095],[0.814,48.099],[0.841,48.103],[0.85,48.133],[0.917,48.139],[0.796,48.188],[0.83,48.211],[0.786,48.271],[0.807,48.29],[0.756,48.3],[0.785,48.34],[0.916,48.375],[0.976,48.439],[0.936,48.476],[0.956,48.482],[0.942,48.499],[0.968,48.524],[0.925,48.536],[0.939,48.551],[0.926,48.56],[0.851,48.583],[0.847,48.61],[0.82,48.61],[0.83,48.632],[0.809,48.665],[0.891,48.72],[0.921,48.709],[1.034,48.728],[1.064,48.759],[1.115,48.747],[1.121,48.789],[1.223,48.758],[1.33,48.761],[1.375,48.781],[1.361,48.834],[1.465,48.878],[1.471,48.898],[1.448,48.925],[1.502,48.941],[1.564,48.891],[1.547,48.871],[1.598,48.839],[1.579,48.829],[1.581,48.766],[1.627,48.748],[1.577,48.703],[1.612,48.689],[1.603,48.662],[1.643,48.651],[1.666,48.614],[1.715,48.615],[1.709,48.578],[1.787,48.554],[1.777,48.509],[1.801,48.466],[1.837,48.467],[1.872,48.44],[1.929,48.457],[1.943,48.441],[1.928,48.406],[1.978,48.402],[1.967,48.38],[1.989,48.364],[1.969,48.341],[1.979,48.313],[1.959,48.309],[1.982,48.295],[1.973,48.288],[2.041,48.284],[2.106,48.308],[2.164,48.298],[2.152,48.316],[2.181,48.312],[2.202,48.345],[2.246,48.331],[2.245,48.298],[2.328,48.333],[2.358,48.308],[2.403,48.321],[2.424,48.26],[2.518,48.228],[2.517,48.166],[2.483,48.165],[2.444,48.124],[2.558,48.142],[2.705,48.123],[2.755,48.146],[2.736,48.166],[2.795,48.169],[2.811,48.164],[2.801,48.131],[2.953,48.165],[3.029,48.133],[3.016,48.116],[3.035,48.116],[3.05,48.072],[3.124,48.031],[3.099,48.021],[3.124,48.007],[3.128,47.971],[3.05,47.911],[3.01,47.905],[2.998,47.867],[3.032,47.85],[3.013,47.834],[3.025,47.788],[2.852,47.758],[2.849,47.717],[2.879,47.72],[2.879,47.704],[2.927,47.682],[2.918,47.67],[2.954,47.646],[2.932,47.627],[2.936,47.599],[2.977,47.569],[2.857,47.552],[2.847,47.54],[2.875,47.52]]]}},{"type":"Feature","properties":{"code":"27","nom":"Bourgogne-Franche-Comté"},"geometry":{"type":"Polygon","coordinates":[[[3.629,46.749],[3.589,46.761],[3.576,46.75],[3.598,46.724],[3.547,46.721],[3.561,46.689],[3.457,46.652],[3.434,46.712],[3.379,46.712],[3.347,46.684],[3.27,46.717],[3.199,46.68],[3.036,46.776],[3.033,46.8],[3.07,46.853],[3.05,46.908],[3.079,46.955],[3.063,46.979],[3.075,47.029],[3.019,47.068],[3.028,47.129],[2.979,47.23],[2.983,47.261],[2.877,47.322],[2.872,47.346],[2.932,47.439],[2.845,47.545],[2.977,47.569],[2.936,47.599],[2.932,47.627],[2.954,47.646],[2.918,47.67],[2.927,47.682],[2.879,47.704],[2.879,47.72],[2.849,47.717],[2.852,47.758],[3.025,47.788],[3.013,47.834],[3.032,47.85],[2.998,47.867],[3.01,47.905],[3.05,47.911],[3.128,47.971],[3.124,48.007],[3.099,48.021],[3.124,48.031],[3.05,48.072],[3.035,48.116],[3.016,48.116],[3.029,48.133],[2.935,48.166],[2.937,48.183],[3.005,48.207],[3.048,48.25],[3.015,48.306],[3.05,48.36],[3.103,48.35],[3.172,48.378],[3.2,48.364],[3.283,48.382],[3.358,48.371],[3.383,48.399],[3.415,48.39],[3.427,48.358],[3.498,48.37],[3.624,48.259],[3.6,48.236],[3.622,48.226],[3.575,48.189],[3.635,48.188],[3.668,48.139],[3.722,48.155],[3.714,48.174],[3.747,48.166],[3.74,48.133],[3.792,48.118],[3.83,48.058],[3.822,48.044],[3.871,48.017],[3.871,48.003],[3.84,48.004],[3.85,47.984],[3.88,47.979],[3.893,48.002],[3.911,47.982],[3.902,47.926],[4.004,47.942],[4.045,47.925],[4.061,47.946],[4.11,47.926],[4.166,47.96],[4.202,47.941],[4.202,47.973],[4.226,47.972],[4.222,47.95],[4.245,47.93],[4.293,47.926],[4.313,47.962],[4.554,47.967],[4.536,48.007],[4.585,48.03],[4.789,48.008],[4.81,47.989],[4.787,47.964],[4.845,47.961],[4.866,47.941],[4.834,47.907],[4.86,47.896],[4.869,47.917],[4.903,47.921],[4.927,47.872],[4.954,47.867],[4.96,47.839],[4.994,47.82],[4.918,47.777],[4.923,47.759],[4.959,47.762],[4.957,47.732],[4.972,47.729],[4.954,47.701],[4.969,47.686],[5.029,47.71],[5.029,47.693],[5.061,47.695],[5.053,47.668],[5.125,47.647],[5.178,47.681],[5.174,47.653],[5.237,47.617],[5.259,47.622],[5.238,47.597],[5.253,47.577],[5.322,47.612],[5.356,47.591],[5.42,47.678],[5.53,47.673],[5.567,47.707],[5.597,47.672],[5.691,47.685],[5.683,47.717],[5.71,47.745],[5.708,47.768],[5.677,47.779],[5.69,47.819],[5.741,47.819],[5.761,47.859],[5.828,47.852],[5.837,47.891],[5.887,47.904],[5.884,47.925],[5.932,47.977],[5.96,47.968],[5.928,47.938],[6.005,47.958],[6.041,48.004],[6.131,48.024],[6.156,48.007],[6.165,47.973],[6.15,47.966],[6.208,47.947],[6.205,47.932],[6.389,47.961],[6.435,47.943],[6.478,47.885],[6.607,47.944],[6.646,47.903],[6.783,47.851],[6.824,47.813],[6.843,47.825],[6.867,47.783],[7.016,47.743],[7.048,47.684],[7.039,47.651],[7.006,47.629],[7.006,47.602],[7.02,47.589],[7.081,47.596],[7.143,47.525],[7.111,47.495],[6.983,47.493],[7.002,47.454],[6.941,47.433],[6.938,47.406],[6.914,47.404],[6.879,47.352],[7.016,47.373],[7.048,47.362],[7.057,47.335],[7.01,47.324],[6.997,47.296],[6.941,47.287],[6.955,47.243],[6.841,47.171],[6.85,47.157],[6.703,47.082],[6.692,47.067],[6.719,47.051],[6.617,46.992],[6.497,46.974],[6.433,46.929],[6.465,46.89],[6.431,46.812],[6.459,46.788],[6.452,46.774],[6.282,46.691],[6.112,46.578],[6.153,46.537],[6.073,46.466],[6.086,46.444],[6.064,46.416],[5.984,46.363],[5.941,46.309],[5.918,46.309],[5.909,46.284],[5.853,46.262],[5.725,46.261],[5.715,46.309],[5.644,46.325],[5.643,46.345],[5.594,46.294],[5.474,46.264],[5.457,46.274],[5.467,46.323],[5.438,46.316],[5.424,46.348],[5.405,46.31],[5.401,46.34],[5.363,46.37],[5.378,46.382],[5.299,46.413],[5.324,46.428],[5.315,46.445],[5.215,46.468],[5.202,46.508],[5.167,46.519],[5.166,46.503],[5.056,46.484],[4.984,46.515],[4.95,46.501],[4.941,46.52],[4.78,46.177],[4.727,46.179],[4.736,46.212],[4.72,46.228],[4.737,46.232],[4.682,46.255],[4.71,46.279],[4.679,46.306],[4.637,46.301],[4.619,46.265],[4.56,46.295],[4.546,46.274],[4.504,46.267],[4.459,46.297],[4.406,46.296],[4.389,46.213],[4.363,46.2],[4.374,46.187],[4.327,46.185],[4.281,46.156],[4.25,46.158],[4.255,46.188],[4.225,46.178],[4.208,46.195],[4.187,46.175],[4.133,46.177],[4.104,46.198],[3.99,46.169],[3.973,46.203],[3.89,46.214],[3.91,46.248],[3.891,46.285],[3.945,46.3],[3.946,46.321],[4.005,46.327],[3.985,46.33],[3.977,46.399],[4.001,46.462],[3.952,46.478],[3.956,46.492],[3.865,46.49],[3.839,46.531],[3.805,46.519],[3.742,46.54],[3.737,46.602],[3.714,46.608],[3.724,46.626],[3.638,46.707],[3.629,46.749]]]}},{"type":"Feature","properties":{"code":"28","nom":"Normandie"},"geometry":{"type":"MultiPolygon","coordinates":[[[[-1.12,49.356],[-1.073,49.39],[-0.947,49.396],[-0.755,49.349],[-0.397,49.333],[-0.226,49.282],[-0.087,49.298],[0.011,49.331],[0.13,49.403],[0.341,49.434],[0.339,49.45],[0.121,49.463],[0.067,49.51],[0.075,49.536],[0.193,49.707],[0.337,49.747],[0.573,49.85],[1.066,49.926],[1.202,49.971],[1.37,50.065],[1.409,50.057],[1.431,50.072],[1.459,50.062],[1.455,50.038],[1.603,49.943],[1.678,49.918],[1.713,49.886],[1.736,49.81],[1.785,49.764],[1.75,49.764],[1.745,49.739],[1.713,49.734],[1.715,49.709],[1.69,49.695],[1.712,49.681],[1.744,49.702],[1.752,49.683],[1.699,49.644],[1.722,49.622],[1.694,49.601],[1.722,49.589],[1.691,49.58],[1.748,49.538],[1.716,49.504],[1.745,49.489],[1.759,49.511],[1.79,49.503],[1.776,49.471],[1.725,49.441],[1.714,49.407],[1.74,49.406],[1.72,49.394],[1.761,49.366],[1.772,49.291],[1.803,49.273],[1.791,49.247],[1.759,49.272],[1.709,49.264],[1.704,49.229],[1.672,49.206],[1.658,49.132],[1.613,49.08],[1.521,49.068],[1.508,49.085],[1.503,49.059],[1.447,49.054],[1.48,49.008],[1.461,48.986],[1.471,48.975],[1.518,48.978],[1.492,48.964],[1.511,48.954],[1.499,48.939],[1.448,48.925],[1.471,48.898],[1.461,48.872],[1.361,48.834],[1.375,48.781],[1.328,48.76],[1.223,48.758],[1.121,48.789],[1.115,48.747],[1.064,48.759],[1.034,48.728],[0.921,48.709],[0.891,48.72],[0.864,48.688],[0.812,48.668],[0.83,48.632],[0.82,48.61],[0.847,48.61],[0.851,48.583],[0.926,48.56],[0.939,48.551],[0.925,48.536],[0.968,48.524],[0.942,48.499],[0.956,48.482],[0.936,48.476],[0.976,48.441],[0.909,48.37],[0.791,48.343],[0.769,48.322],[0.756,48.3],[0.807,48.29],[0.786,48.271],[0.83,48.211],[0.758,48.18],[0.683,48.255],[0.64,48.261],[0.632,48.235],[0.557,48.247],[0.495,48.282],[0.507,48.295],[0.49,48.309],[0.396,48.32],[0.374,48.387],[0.382,48.425],[0.327,48.472],[0.265,48.485],[0.173,48.465],[0.171,48.449],[0.144,48.456],[0.156,48.439],[0.071,48.409],[0.061,48.38],[-0.002,48.397],[-0.051,48.375],[-0.051,48.453],[-0.147,48.456],[-0.172,48.511],[-0.145,48.528],[-0.208,48.564],[-0.243,48.568],[-0.263,48.549],[-0.241,48.537],[-0.272,48.507],[-0.32,48.523],[-0.353,48.484],[-0.395,48.51],[-0.51,48.509],[-0.552,48.473],[-0.651,48.444],[-0.666,48.486],[-0.692,48.468],[-0.731,48.473],[-0.715,48.449],[-0.76,48.436],[-0.778,48.465],[-0.813,48.455],[-0.846,48.5],[-0.909,48.497],[-0.955,48.517],[-1.004,48.489],[-1.207,48.542],[-1.262,48.54],[-1.28,48.509],[-1.326,48.499],[-1.38,48.456],[-1.49,48.489],[-1.534,48.55],[-1.519,48.567],[-1.543,48.58],[-1.537,48.599],[-1.571,48.626],[-1.528,48.629],[-1.513,48.613],[-1.425,48.644],[-1.352,48.631],[-1.4,48.656],[-1.376,48.69],[-1.446,48.655],[-1.505,48.687],[-1.529,48.73],[-1.571,48.744],[-1.574,48.822],[-1.614,48.834],[-1.582,48.854],[-1.557,48.932],[-1.55,48.896],[-1.557,49.027],[-1.506,49.02],[-1.56,49.037],[-1.576,49.0],[-1.599,49.037],[-1.609,49.106],[-1.581,49.132],[-1.614,49.219],[-1.569,49.222],[-1.615,49.238],[-1.626,49.21],[-1.678,49.28],[-1.657,49.282],[-1.685,49.288],[-1.711,49.325],[-1.675,49.332],[-1.719,49.325],[-1.787,49.375],[-1.759,49.373],[-1.809,49.372],[-1.848,49.504],[-1.887,49.526],[-1.839,49.576],[-1.85,49.633],[-1.872,49.657],[-1.947,49.675],[-1.948,49.717],[-1.922,49.726],[-1.883,49.706],[-1.852,49.718],[-1.823,49.69],[-1.615,49.658],[-1.631,49.654],[-1.615,49.643],[-1.6,49.661],[-1.487,49.669],[-1.473,49.697],[-1.266,49.695],[-1.229,49.606],[-1.254,49.613],[-1.272,49.571],[-1.27,49.584],[-1.296,49.583],[-1.306,49.539],[-1.171,49.413],[-1.162,49.392],[-1.178,49.365],[-1.12,49.356]]]]}},{"type":"Feature","properties":{"code":"32","nom":"Hauts-de-France"},"geometry":{"type":"Polygon","coordinates":[[[4.141,49.979],[4.233,49.958],[4.217,49.914],[4.256,49.903],[4.253,49.87],[4.206,49.778],[4.25,49.757],[4.185,49.699],[4.127,49.678],[4.116,49.633],[4.041,49.638],[4.025,49.623],[4.077,49.571],[4.049,49.545],[4.076,49.541],[4.076,49.518],[4.041,49.509],[4.042,49.469],[4.068,49.445],[4.038,49.438],[4.05,49.412],[4.035,49.36],[3.961,49.377],[3.925,49.408],[3.896,49.393],[3.822,49.402],[3.86,49.386],[3.853,49.345],[3.778,49.356],[3.644,49.313],[3.654,49.254],[3.678,49.235],[3.653,49.215],[3.699,49.206],[3.711,49.178],[3.751,49.178],[3.749,49.157],[3.703,49.141],[3.622,49.151],[3.6,49.121],[3.638,49.077],[3.588,49.059],[3.585,49.039],[3.65,49.043],[3.678,49.014],[3.64,49.004],[3.621,48.966],[3.592,48.96],[3.603,48.944],[3.574,48.939],[3.564,48.911],[3.529,48.912],[3.461,48.839],[3.446,48.86],[3.381,48.872],[3.368,48.928],[3.33,48.909],[3.305,48.949],[3.265,48.939],[3.249,48.974],[3.167,49.012],[3.191,49.051],[3.154,49.083],[3.165,49.1],[3.138,49.107],[3.07,49.118],[3.065,49.085],[3.009,49.092],[2.987,49.071],[2.969,49.091],[2.855,49.07],[2.809,49.098],[2.735,49.06],[2.724,49.08],[2.698,49.064],[2.633,49.108],[2.583,49.081],[2.553,49.125],[2.531,49.1],[2.49,49.106],[2.503,49.118],[2.472,49.135],[2.376,49.159],[2.359,49.147],[2.311,49.186],[2.286,49.16],[2.23,49.151],[2.219,49.181],[2.169,49.164],[2.081,49.21],[2.002,49.176],[1.883,49.162],[1.803,49.185],[1.741,49.181],[1.715,49.207],[1.74,49.223],[1.699,49.235],[1.707,49.261],[1.759,49.272],[1.791,49.247],[1.803,49.273],[1.772,49.291],[1.761,49.366],[1.72,49.394],[1.74,49.406],[1.714,49.407],[1.725,49.441],[1.791,49.498],[1.759,49.511],[1.745,49.489],[1.716,49.506],[1.748,49.538],[1.691,49.58],[1.722,49.589],[1.694,49.601],[1.722,49.622],[1.699,49.644],[1.752,49.683],[1.744,49.702],[1.712,49.681],[1.692,49.692],[1.713,49.725],[1.745,49.739],[1.75,49.764],[1.785,49.758],[1.734,49.813],[1.71,49.889],[1.455,50.038],[1.449,50.069],[1.381,50.064],[1.453,50.108],[1.483,50.172],[1.527,50.208],[1.565,50.217],[1.596,50.185],[1.684,50.183],[1.663,50.214],[1.623,50.214],[1.592,50.256],[1.551,50.259],[1.538,50.279],[1.556,50.361],[1.624,50.366],[1.642,50.352],[1.556,50.398],[1.583,50.535],[1.659,50.508],[1.577,50.572],[1.562,50.724],[1.603,50.722],[1.606,50.768],[1.582,50.871],[1.642,50.879],[1.781,50.955],[2.078,51.008],[2.122,50.99],[2.108,51.004],[2.15,51.034],[2.18,51.007],[2.196,51.036],[2.171,51.044],[2.214,51.032],[2.35,51.061],[2.395,51.05],[2.546,51.089],[2.574,51.004],[2.607,50.991],[2.633,50.946],[2.59,50.919],[2.608,50.91],[2.599,50.849],[2.635,50.813],[2.724,50.81],[2.79,50.726],[2.848,50.723],[2.906,50.692],[2.95,50.751],[3.151,50.79],[3.205,50.712],[3.261,50.701],[3.265,50.676],[3.24,50.659],[3.279,50.596],[3.289,50.526],[3.376,50.491],[3.45,50.507],[3.474,50.534],[3.52,50.523],[3.501,50.487],[3.608,50.497],[3.662,50.456],[3.675,50.402],[3.657,50.369],[3.71,50.303],[3.747,50.351],[3.847,50.353],[3.9,50.327],[4.024,50.359],[4.079,50.31],[4.117,50.304],[4.135,50.257],[4.168,50.26],[4.15,50.275],[4.163,50.289],[4.208,50.273],[4.221,50.252],[4.152,50.213],[4.156,50.164],[4.127,50.135],[4.197,50.135],[4.198,50.107],[4.231,50.071],[4.152,50.039],[4.136,50.013],[4.163,49.995],[4.141,49.979]]]}},{"type":"Feature","properties":{"code":"44","nom":"Grand Est"},"geometry":{"type":"Polygon","coordinates":[[[4.233,49.958],[4.309,49.97],[4.447,49.938],[4.523,49.95],[4.582,49.984],[4.694,49.996],[4.685,50.027],[4.7,50.054],[4.68,50.066],[4.693,50.085],[4.825,50.169],[4.897,50.138],[4.867,50.119],[4.872,50.088],[4.851,50.101],[4.838,50.067],[4.819,50.066],[4.841,50.04],[4.79,49.97],[4.89,49.909],[4.851,49.865],[4.877,49.819],[4.851,49.794],[4.995,49.801],[5.014,49.78],[5.093,49.764],[5.126,49.712],[5.158,49.717],[5.166,49.693],[5.271,49.695],[5.332,49.655],[5.305,49.63],[5.312,49.612],[5.352,49.631],[5.429,49.596],[5.457,49.567],[5.441,49.552],[5.465,49.539],[5.447,49.518],[5.465,49.499],[5.556,49.529],[5.611,49.506],[5.643,49.55],[5.747,49.539],[5.771,49.563],[5.837,49.542],[5.837,49.52],[5.864,49.501],[5.943,49.5],[5.972,49.491],[5.979,49.453],[6.042,49.448],[6.058,49.466],[6.101,49.453],[6.128,49.494],[6.162,49.493],[6.155,49.504],[6.241,49.515],[6.334,49.467],[6.428,49.477],[6.542,49.432],[6.557,49.419],[6.541,49.401],[6.602,49.366],[6.566,49.347],[6.67,49.28],[6.662,49.257],[6.69,49.25],[6.696,49.215],[6.723,49.219],[6.731,49.206],[6.711,49.189],[6.739,49.164],[6.835,49.151],[6.862,49.179],[6.838,49.213],[6.925,49.224],[7.035,49.191],[7.028,49.17],[7.054,49.113],[7.101,49.156],[7.104,49.139],[7.159,49.121],[7.245,49.13],[7.294,49.115],[7.324,49.143],[7.363,49.145],[7.366,49.172],[7.445,49.184],[7.436,49.164],[7.494,49.17],[7.506,49.155],[7.49,49.137],[7.529,49.097],[7.629,49.074],[7.635,49.054],[7.758,49.045],[7.795,49.066],[7.866,49.033],[7.934,49.058],[8.087,48.991],[8.228,48.973],[8.143,48.898],[8.092,48.806],[8.029,48.786],[8.015,48.761],[7.972,48.758],[7.963,48.721],[7.842,48.644],[7.802,48.588],[7.807,48.517],[7.768,48.49],[7.732,48.393],[7.745,48.328],[7.693,48.302],[7.666,48.221],[7.577,48.12],[7.569,48.034],[7.622,47.972],[7.557,47.88],[7.563,47.844],[7.53,47.779],[7.548,47.73],[7.512,47.697],[7.521,47.664],[7.593,47.599],[7.585,47.576],[7.5,47.54],[7.531,47.528],[7.523,47.514],[7.498,47.521],[7.502,47.491],[7.471,47.48],[7.435,47.498],[7.421,47.48],[7.456,47.471],[7.386,47.432],[7.331,47.442],[7.246,47.42],[7.233,47.439],[7.171,47.443],[7.201,47.494],[7.13,47.503],[7.143,47.525],[7.081,47.596],[7.02,47.589],[7.006,47.602],[7.006,47.629],[7.039,47.651],[7.048,47.684],[7.016,47.743],[6.867,47.783],[6.843,47.825],[6.824,47.813],[6.783,47.851],[6.646,47.903],[6.604,47.945],[6.563,47.931],[6.544,47.903],[6.478,47.892],[6.435,47.943],[6.389,47.961],[6.205,47.932],[6.208,47.947],[6.15,47.966],[6.165,47.976],[6.148,48.014],[6.073,48.016],[5.949,47.935],[5.928,47.938],[5.959,47.97],[5.923,47.972],[5.918,47.947],[5.884,47.925],[5.887,47.904],[5.837,47.891],[5.828,47.852],[5.761,47.859],[5.741,47.819],[5.692,47.821],[5.677,47.779],[5.708,47.768],[5.71,47.745],[5.683,47.717],[5.691,47.685],[5.597,47.672],[5.567,47.707],[5.53,47.673],[5.42,47.678],[5.356,47.591],[5.322,47.612],[5.253,47.577],[5.238,47.597],[5.259,47.622],[5.237,47.617],[5.174,47.653],[5.178,47.681],[5.125,47.647],[5.053,47.668],[5.061,47.695],[5.029,47.693],[5.029,47.71],[4.969,47.686],[4.954,47.701],[4.972,47.729],[4.957,47.732],[4.959,47.762],[4.923,47.759],[4.918,47.777],[4.994,47.82],[4.96,47.839],[4.954,47.867],[4.927,47.872],[4.903,47.921],[4.869,47.917],[4.86,47.896],[4.834,47.907],[4.866,47.941],[4.845,47.961],[4.787,47.964],[4.81,47.989],[4.789,48.008],[4.585,48.03],[4.536,48.007],[4.554,47.967],[4.313,47.962],[4.293,47.926],[4.245,47.93],[4.222,47.95],[4.226,47.972],[4.202,47.973],[4.193,47.965],[4.213,47.962],[4.193,47.939],[4.166,47.96],[4.11,47.926],[4.061,47.946],[4.045,47.925],[4.004,47.942],[3.905,47.925],[3.902,47.995],[3.85,47.984],[3.84,48.004],[3.871,48.003],[3.871,48.017],[3.822,48.044],[3.83,48.058],[3.792,48.118],[3.74,48.133],[3.747,48.166],[3.714,48.174],[3.722,48.155],[3.668,48.139],[3.635,48.188],[3.58,48.184],[3.622,48.226],[3.6,48.236],[3.624,48.255],[3.617,48.271],[3.578,48.285],[3.588,48.301],[3.498,48.37],[3.427,48.358],[3.413,48.376],[3.422,48.416],[3.392,48.423],[3.406,48.452],[3.383,48.479],[3.435,48.49],[3.405,48.528],[3.482,48.541],[3.466,48.57],[3.516,48.59],[3.503,48.605],[3.559,48.617],[3.519,48.633],[3.533,48.647],[3.451,48.635],[3.46,48.653],[3.441,48.664],[3.478,48.698],[3.47,48.738],[3.399,48.755],[3.409,48.784],[3.444,48.791],[3.404,48.809],[3.487,48.815],[3.482,48.866],[3.529,48.912],[3.571,48.915],[3.64,49.004],[3.678,49.014],[3.65,49.043],[3.585,49.039],[3.588,49.059],[3.638,49.077],[3.6,49.121],[3.622,49.151],[3.703,49.141],[3.749,49.157],[3.751,49.178],[3.711,49.178],[3.699,49.206],[3.653,49.215],[3.678,49.235],[3.654,49.254],[3.648,49.316],[3.778,49.356],[3.853,49.345],[3.86,49.386],[3.822,49.402],[3.896,49.393],[3.925,49.408],[3.961,49.377],[4.035,49.36],[4.05,49.412],[4.038,49.438],[4.068,49.445],[4.042,49.469],[4.041,49.509],[4.076,49.518],[4.076,49.541],[4.049,49.545],[4.077,49.571],[4.025,49.621],[4.041,49.638],[4.116,49.633],[4.127,49.678],[4.185,49.699],[4.25,49.757],[4.206,49.778],[4.253,49.87],[4.256,49.903],[4.217,49.914],[4.233,49.958]]]}},{"type":"Feature","properties":{"code":"52","nom":"Pays de la Loire"},"geometry":{"type":"MultiPolygon","coordinates":[[[[-2.458,47.448],[-2.423,47.477],[-2.4,47.456],[-2.317,47.461],[-2.296,47.516],[-2.255,47.512],[-2.266,47.502],[-2.244,47.494],[-2.185,47.512],[-2.192,47.497],[-2.165,47.489],[-2.156,47.522],[-2.099,47.534],[-2.104,47.591],[-2.081,47.65],[-1.974,47.694],[-1.961,47.671],[-1.858,47.708],[-1.658,47.709],[-1.623,47.764],[-1.471,47.803],[-1.478,47.836],[-1.395,47.829],[-1.365,47.799],[-1.246,47.777],[-1.243,47.808],[-1.216,47.831],[-1.223,47.852],[-1.189,47.867],[-1.197,47.889],[-1.176,47.897],[-1.155,47.966],[-1.125,47.972],[-1.125,47.987],[-1.05,47.984],[-1.016,48.004],[-1.035,48.034],[-1.022,48.068],[-1.05,48.09],[-1.102,48.263],[-1.045,48.328],[-1.084,48.434],[-1.065,48.451],[-1.079,48.49],[-1.06,48.515],[-1.004,48.489],[-0.955,48.517],[-0.909,48.497],[-0.846,48.5],[-0.813,48.455],[-0.778,48.465],[-0.76,48.436],[-0.715,48.449],[-0.731,48.473],[-0.692,48.468],[-0.666,48.486],[-0.651,48.444],[-0.552,48.473],[-0.51,48.509],[-0.395,48.51],[-0.353,48.484],[-0.32,48.523],[-0.272,48.507],[-0.241,48.537],[-0.263,48.549],[-0.243,48.568],[-0.208,48.564],[-0.145,48.528],[-0.172,48.511],[-0.147,48.456],[-0.051,48.453],[-0.051,48.375],[-0.002,48.397],[0.061,48.38],[0.071,48.409],[0.158,48.441],[0.146,48.457],[0.301,48.48],[0.357,48.458],[0.382,48.425],[0.38,48.342],[0.404,48.315],[0.49,48.309],[0.507,48.295],[0.495,48.282],[0.536,48.25],[0.632,48.235],[0.634,48.258],[0.665,48.261],[0.745,48.185],[0.798,48.194],[0.908,48.151],[0.914,48.135],[0.85,48.133],[0.841,48.103],[0.814,48.099],[0.848,48.095],[0.843,48.073],[0.794,48.07],[0.798,48.037],[0.842,48.03],[0.819,47.989],[0.85,47.947],[0.812,47.929],[0.812,47.889],[0.79,47.912],[0.76,47.899],[0.768,47.831],[0.691,47.783],[0.703,47.767],[0.628,47.752],[0.581,47.714],[0.615,47.683],[0.493,47.644],[0.426,47.617],[0.383,47.643],[0.364,47.621],[0.402,47.578],[0.378,47.569],[0.232,47.611],[0.234,47.578],[0.193,47.539],[0.226,47.527],[0.22,47.502],[0.181,47.453],[0.181,47.416],[0.154,47.399],[0.183,47.38],[0.14,47.362],[0.147,47.345],[0.079,47.284],[0.079,47.217],[0.053,47.197],[0.063,47.176],[-0.012,47.156],[-0.041,47.114],[-0.027,47.106],[-0.036,47.086],[-0.086,47.101],[-0.102,47.065],[-0.129,47.054],[-0.179,47.07],[-0.141,47.097],[-0.18,47.108],[-0.206,47.093],[-0.241,47.106],[-0.396,47.092],[-0.407,47.067],[-0.48,47.054],[-0.46,47.082],[-0.494,47.083],[-0.557,47.064],[-0.543,47.032],[-0.595,46.998],[-0.671,47.003],[-0.716,46.984],[-0.788,47.005],[-0.844,46.989],[-0.853,46.971],[-0.902,46.971],[-0.807,46.92],[-0.831,46.885],[-0.782,46.843],[-0.699,46.811],[-0.727,46.766],[-0.656,46.701],[-0.681,46.687],[-0.637,46.663],[-0.659,46.636],[-0.614,46.622],[-0.625,46.575],[-0.602,46.548],[-0.608,46.526],[-0.644,46.522],[-0.608,46.455],[-0.637,46.432],[-0.641,46.397],[-0.621,46.39],[-0.61,46.414],[-0.538,46.386],[-0.562,46.36],[-0.603,46.361],[-0.648,46.317],[-0.698,46.325],[-0.722,46.302],[-0.803,46.325],[-0.804,46.343],[-0.84,46.34],[-0.849,46.318],[-0.887,46.327],[-0.931,46.31],[-0.963,46.323],[-0.927,46.371],[-0.965,46.365],[-0.975,46.351],[-1.053,46.349],[-1.096,46.312],[-1.203,46.316],[-1.205,46.267],[-1.296,46.324],[-1.293,46.291],[-1.272,46.289],[-1.297,46.29],[-1.343,46.343],[-1.466,46.342],[-1.515,46.404],[-1.648,46.42],[-1.777,46.493],[-1.812,46.493],[-1.857,46.61],[-1.943,46.693],[-1.966,46.692],[-1.998,46.732],[-2.142,46.819],[-2.155,46.89],[-2.113,46.896],[-2.045,46.968],[-2.029,47.01],[-1.98,47.029],[-2.005,47.061],[-2.103,47.114],[-2.247,47.132],[-2.167,47.166],[-2.158,47.209],[-2.181,47.235],[-2.17,47.268],[-2.187,47.281],[-2.298,47.233],[-2.375,47.279],[-2.42,47.276],[-2.417,47.259],[-2.432,47.258],[-2.546,47.291],[-2.512,47.3],[-2.503,47.329],[-2.559,47.375],[-2.468,47.421],[-2.433,47.413],[-2.459,47.424],[-2.445,47.436],[-2.458,47.448]]],[[[-2.305,46.709],[-2.284,46.688],[-2.383,46.706],[-2.4,46.726],[-2.374,46.734],[-2.305,46.709]]],[[[-2.198,46.951],[-2.262,46.959],[-2.302,46.991],[-2.292,47.011],[-2.308,47.025],[-2.251,47.027],[-2.22,47.003],[-2.24,46.996],[-2.232,46.974],[-2.148,46.938],[-2.155,46.895],[-2.198,46.951]]]]}},{"type":"Feature","properties":{"code":"53","nom":"Bretagne"},"geometry":{"type":"MultiPolygon","coordinates":[[[[-3.002,48.836],[-3.008,48.859],[-2.985,48.863],[-3.002,48.836]]],[[[-2.007,48.566],[-1.972,48.537],[-1.993,48.523],[-1.98,48.516],[-1.995,48.492],[-1.965,48.526],[-1.948,48.519],[-1.987,48.585],[-1.954,48.579],[-2.013,48.6],[-2.001,48.615],[-2.029,48.65],[-1.989,48.665],[-1.988,48.684],[-1.938,48.684],[-1.959,48.691],[-1.937,48.702],[-1.905,48.69],[-1.845,48.712],[-1.836,48.68],[-1.872,48.646],[-1.847,48.618],[-1.768,48.602],[-1.571,48.626],[-1.537,48.599],[-1.543,48.58],[-1.519,48.567],[-1.534,48.55],[-1.49,48.489],[-1.45,48.488],[-1.428,48.462],[-1.354,48.468],[-1.328,48.498],[-1.28,48.509],[-1.254,48.543],[-1.07,48.508],[-1.065,48.451],[-1.084,48.434],[-1.045,48.328],[-1.102,48.263],[-1.05,48.09],[-1.022,48.068],[-1.035,48.034],[-1.016,48.004],[-1.05,47.984],[-1.125,47.987],[-1.125,47.972],[-1.155,47.966],[-1.176,47.897],[-1.197,47.889],[-1.189,47.867],[-1.223,47.852],[-1.216,47.831],[-1.243,47.808],[-1.246,47.777],[-1.365,47.799],[-1.395,47.829],[-1.478,47.836],[-1.471,47.803],[-1.623,47.764],[-1.658,47.709],[-1.858,47.708],[-1.956,47.671],[-1.974,47.694],[-2.013,47.666],[-2.039,47.67],[-2.097,47.631],[-2.084,47.611],[-2.104,47.591],[-2.099,47.534],[-2.156,47.522],[-2.165,47.489],[-2.192,47.497],[-2.185,47.512],[-2.244,47.494],[-2.266,47.502],[-2.255,47.512],[-2.296,47.516],[-2.317,47.461],[-2.4,47.456],[-2.423,47.477],[-2.481,47.441],[-2.501,47.458],[-2.488,47.471],[-2.501,47.493],[-2.421,47.495],[-2.534,47.528],[-2.632,47.505],[-2.609,47.527],[-2.576,47.522],[-2.588,47.53],[-2.559,47.552],[-2.587,47.564],[-2.583,47.543],[-2.604,47.531],[-2.611,47.568],[-2.626,47.531],[-2.67,47.543],[-2.621,47.525],[-2.664,47.519],[-2.675,47.492],[-2.725,47.506],[-2.815,47.487],[-2.85,47.499],[-2.847,47.519],[-2.904,47.534],[-2.893,47.544],[-2.913,47.542],[-2.914,47.557],[-2.879,47.564],[-2.853,47.537],[-2.827,47.55],[-2.824,47.536],[-2.824,47.557],[-2.8,47.537],[-2.788,47.553],[-2.768,47.536],[-2.735,47.541],[-2.719,47.587],[-2.711,47.576],[-2.689,47.591],[-2.687,47.631],[-2.703,47.632],[-2.69,47.637],[-2.712,47.648],[-2.703,47.623],[-2.717,47.62],[-2.696,47.61],[-2.717,47.614],[-2.703,47.603],[-2.721,47.59],[-2.778,47.619],[-2.734,47.613],[-2.755,47.638],[-2.778,47.628],[-2.794,47.645],[-2.783,47.621],[-2.863,47.622],[-2.859,47.601],[-2.89,47.603],[-2.89,47.574],[-2.926,47.586],[-2.918,47.603],[-2.927,47.592],[-2.933,47.606],[-2.937,47.586],[-2.951,47.61],[-2.936,47.626],[-2.959,47.627],[-2.978,47.659],[-2.954,47.612],[-2.972,47.608],[-2.954,47.597],[-2.97,47.588],[-2.927,47.557],[-2.976,47.559],[-2.994,47.591],[-2.989,47.567],[-3.004,47.566],[-3.025,47.592],[-3.019,47.567],[-3.045,47.587],[-3.054,47.569],[-3.095,47.564],[-3.107,47.575],[-3.092,47.579],[-3.127,47.598],[-3.129,47.575],[-3.116,47.575],[-3.13,47.522],[-3.081,47.47],[-3.133,47.475],[-3.16,47.526],[-3.134,47.546],[-3.14,47.58],[-3.211,47.643],[-3.209,47.67],[-3.132,47.702],[-3.169,47.697],[-3.149,47.716],[-3.131,47.704],[-3.125,47.726],[-3.103,47.718],[-3.153,47.719],[-3.135,47.747],[-3.16,47.729],[-3.201,47.745],[-3.17,47.728],[-3.166,47.705],[-3.216,47.696],[-3.199,47.684],[-3.215,47.645],[-3.3,47.689],[-3.359,47.687],[-3.325,47.702],[-3.278,47.69],[-3.365,47.71],[-3.306,47.748],[-3.278,47.794],[-3.344,47.742],[-3.392,47.805],[-3.389,47.828],[-3.399,47.809],[-3.352,47.754],[-3.356,47.732],[-3.387,47.702],[-3.45,47.695],[-3.529,47.765],[-3.518,47.803],[-3.541,47.829],[-3.523,47.849],[-3.542,47.863],[-3.528,47.844],[-3.542,47.821],[-3.521,47.799],[-3.539,47.763],[-3.646,47.775],[-3.644,47.789],[-3.681,47.777],[-3.723,47.803],[-3.641,47.828],[-3.696,47.831],[-3.733,47.803],[-3.752,47.847],[-3.742,47.797],[-3.856,47.79],[-3.902,47.836],[-3.881,47.859],[-3.909,47.85],[-3.901,47.862],[-3.977,47.91],[-3.992,47.896],[-3.977,47.854],[-4.04,47.845],[-4.088,47.862],[-4.047,47.852],[-4.079,47.877],[-4.099,47.862],[-4.145,47.909],[-4.109,47.942],[-4.078,47.937],[-4.095,47.941],[-4.084,47.952],[-4.109,47.943],[-4.102,47.974],[-4.117,47.983],[-4.101,47.971],[-4.122,47.953],[-4.111,47.936],[-4.141,47.926],[-4.146,47.897],[-4.176,47.907],[-4.13,47.89],[-4.113,47.862],[-4.17,47.839],[-4.179,47.879],[-4.198,47.859],[-4.215,47.867],[-4.159,47.832],[-4.183,47.8],[-4.217,47.812],[-4.219,47.792],[-4.368,47.796],[-4.381,47.82],[-4.346,47.84],[-4.388,47.927],[-4.451,47.981],[-4.537,48.012],[-4.531,48.035],[-4.488,48.038],[-4.54,48.038],[-4.535,48.017],[-4.565,48.0],[-4.633,48.029],[-4.74,48.039],[-4.707,48.045],[-4.714,48.064],[-4.665,48.073],[-4.372,48.11],[-4.333,48.085],[-4.335,48.097],[-4.287,48.103],[-4.273,48.154],[-4.295,48.158],[-4.316,48.204],[-4.489,48.236],[-4.54,48.17],[-4.558,48.17],[-4.552,48.208],[-4.572,48.231],[-4.543,48.249],[-4.623,48.253],[-4.615,48.272],[-4.629,48.281],[-4.57,48.282],[-4.583,48.319],[-4.555,48.338],[-4.532,48.342],[-4.56,48.306],[-4.536,48.284],[-4.499,48.311],[-4.518,48.295],[-4.503,48.281],[-4.419,48.293],[-4.385,48.275],[-4.272,48.296],[-4.266,48.285],[-4.289,48.274],[-4.266,48.257],[-4.114,48.245],[-4.117,48.218],[-4.097,48.255],[-4.204,48.249],[-4.279,48.278],[-4.187,48.295],[-4.282,48.312],[-4.249,48.327],[-4.333,48.313],[-4.265,48.358],[-4.33,48.339],[-4.318,48.362],[-4.346,48.342],[-4.347,48.355],[-4.378,48.325],[-4.415,48.324],[-4.397,48.342],[-4.457,48.327],[-4.408,48.381],[-4.27,48.445],[-4.402,48.39],[-4.431,48.397],[-4.437,48.383],[-4.609,48.338],[-4.681,48.356],[-4.711,48.331],[-4.774,48.33],[-4.781,48.359],[-4.746,48.366],[-4.786,48.361],[-4.761,48.378],[-4.795,48.415],[-4.765,48.467],[-4.72,48.476],[-4.763,48.472],[-4.776,48.519],[-4.731,48.556],[-4.704,48.551],[-4.704,48.57],[-4.628,48.579],[-4.591,48.555],[-4.505,48.546],[-4.612,48.578],[-4.598,48.608],[-4.595,48.593],[-4.544,48.598],[-4.478,48.573],[-4.568,48.609],[-4.544,48.636],[-4.501,48.621],[-4.399,48.636],[-4.437,48.655],[-4.33,48.677],[-4.294,48.662],[-4.318,48.646],[-4.297,48.633],[-4.274,48.65],[-4.196,48.652],[-4.222,48.658],[-4.193,48.683],[-4.129,48.697],[-4.081,48.693],[-4.056,48.671],[-4.052,48.704],[-3.971,48.727],[-3.971,48.674],[-3.95,48.673],[-3.956,48.616],[-3.935,48.599],[-3.951,48.65],[-3.922,48.676],[-3.891,48.671],[-3.905,48.657],[-3.859,48.63],[-3.868,48.604],[-3.852,48.607],[-3.846,48.627],[-3.817,48.629],[-3.845,48.629],[-3.864,48.671],[-3.846,48.66],[-3.854,48.689],[-3.831,48.712],[-3.821,48.701],[-3.821,48.718],[-3.68,48.687],[-3.643,48.696],[-3.655,48.682],[-3.639,48.673],[-3.659,48.659],[-3.624,48.686],[-3.61,48.67],[-3.573,48.675],[-3.584,48.719],[-3.55,48.747],[-3.585,48.757],[-3.586,48.777],[-3.504,48.839],[-3.503,48.824],[-3.481,48.838],[-3.46,48.817],[-3.428,48.82],[-3.441,48.798],[-3.398,48.801],[-3.322,48.838],[-3.264,48.834],[-3.224,48.87],[-3.206,48.847],[-3.218,48.835],[-3.203,48.835],[-3.237,48.789],[-3.22,48.784],[-3.183,48.844],[-3.074,48.882],[-3.101,48.867],[-3.076,48.858],[-3.094,48.861],[-3.098,48.832],[-3.072,48.831],[-3.123,48.76],[-3.098,48.769],[-3.073,48.82],[-3.009,48.82],[-3.005,48.799],[-3.046,48.786],[-2.928,48.755],[-2.945,48.721],[-2.827,48.655],[-2.824,48.597],[-2.714,48.556],[-2.721,48.531],[-2.682,48.492],[-2.682,48.532],[-2.63,48.526],[-2.553,48.6],[-2.473,48.623],[-2.488,48.645],[-2.438,48.653],[-2.417,48.633],[-2.318,48.689],[-2.285,48.664],[-2.336,48.62],[-2.317,48.61],[-2.247,48.646],[-2.255,48.633],[-2.213,48.573],[-2.195,48.609],[-2.177,48.576],[-2.149,48.619],[-2.124,48.604],[-2.151,48.635],[-2.057,48.64],[-1.997,48.584],[-2.007,48.566]]],[[[-3.992,48.736],[-4.04,48.746],[-4.006,48.753],[-3.992,48.736]]],[[[-5.103,48.436],[-5.117,48.439],[-5.099,48.456],[-5.14,48.452],[-5.083,48.472],[-5.066,48.482],[-5.035,48.461],[-5.103,48.436]]],[[[-3.422,47.62],[-3.511,47.643],[-3.43,47.643],[-3.422,47.62]]],[[[-2.884,47.343],[-2.863,47.349],[-2.876,47.332],[-2.884,47.343]]],[[[-3.235,47.324],[-3.264,47.352],[-3.245,47.388],[-3.157,47.365],[-3.139,47.329],[-3.076,47.317],[-3.056,47.308],[-3.092,47.278],[-3.168,47.302],[-3.218,47.292],[-3.248,47.313],[-3.235,47.324]]],[[[-2.948,47.373],[-2.989,47.399],[-2.939,47.395],[-2.948,47.373]]],[[[-2.86,47.56],[-2.855,47.6],[-2.839,47.607],[-2.838,47.592],[-2.824,47.589],[-2.847,47.59],[-2.86,47.56]]],[[[-2.81,47.578],[-2.795,47.606],[-2.787,47.595],[-2.81,47.578]]]]}},{"type":"Feature","properties":{"code":"75","nom":"Nouvelle-Aquitaine"},"geometry":{"type":"MultiPolygon","coordinates":[[[[1.415,46.347],[1.522,46.426],[1.544,46.419],[1.546,46.393],[1.609,46.423],[1.627,46.389],[1.684,46.418],[1.727,46.39],[1.76,46.427],[1.748,46.45],[1.798,46.455],[1.84,46.426],[1.909,46.444],[2.089,46.409],[2.198,46.428],[2.281,46.42],[2.287,46.383],[2.338,46.364],[2.301,46.342],[2.365,46.311],[2.386,46.332],[2.421,46.31],[2.421,46.285],[2.481,46.281],[2.489,46.248],[2.515,46.24],[2.526,46.188],[2.56,46.173],[2.55,46.086],[2.571,46.047],[2.603,46.033],[2.594,45.99],[2.612,45.972],[2.564,45.956],[2.542,45.922],[2.555,45.913],[2.502,45.888],[2.492,45.864],[2.443,45.867],[2.45,45.848],[2.431,45.834],[2.388,45.827],[2.445,45.758],[2.485,45.748],[2.523,45.711],[2.52,45.641],[2.487,45.642],[2.461,45.596],[2.517,45.553],[2.488,45.418],[2.521,45.403],[2.523,45.383],[2.477,45.37],[2.351,45.413],[2.369,45.386],[2.36,45.337],[2.316,45.322],[2.189,45.222],[2.201,45.18],[2.232,45.164],[2.179,45.136],[2.19,45.116],[2.175,45.082],[2.14,45.087],[2.095,45.056],[2.141,45.007],[2.13,44.984],[1.991,44.976],[1.949,44.953],[1.939,44.973],[1.909,44.978],[1.801,44.922],[1.749,44.938],[1.751,44.956],[1.63,45.034],[1.545,45.029],[1.537,45.047],[1.409,45.006],[1.442,44.917],[1.412,44.91],[1.442,44.878],[1.366,44.846],[1.364,44.812],[1.298,44.796],[1.298,44.774],[1.323,44.765],[1.316,44.74],[1.225,44.684],[1.147,44.671],[1.153,44.638],[1.095,44.592],[1.103,44.572],[1.074,44.577],[1.013,44.536],[0.982,44.544],[1.016,44.506],[1.028,44.434],[1.057,44.428],[1.064,44.379],[1.049,44.362],[0.952,44.362],[0.942,44.345],[0.92,44.384],[0.896,44.382],[0.896,44.346],[0.869,44.31],[0.951,44.275],[0.928,44.267],[0.906,44.19],[0.853,44.184],[0.89,44.17],[0.881,44.13],[0.789,44.144],[0.799,44.111],[0.757,44.107],[0.739,44.061],[0.663,44.024],[0.594,44.079],[0.555,44.055],[0.46,44.055],[0.442,44.029],[0.382,44.006],[0.317,44.01],[0.303,43.991],[0.231,44.023],[0.19,44.015],[0.158,43.973],[0.127,44.002],[0.056,43.961],[0.077,43.916],[0.059,43.897],[-0.024,43.93],[0.007,43.954],[-0.036,43.984],[-0.07,43.945],[-0.093,43.949],[-0.095,43.929],[-0.179,43.938],[-0.228,43.911],[-0.238,43.894],[-0.186,43.867],[-0.209,43.858],[-0.192,43.81],[-0.227,43.808],[-0.207,43.759],[-0.219,43.75],[-0.194,43.737],[-0.251,43.708],[-0.239,43.694],[-0.258,43.674],[-0.24,43.671],[-0.242,43.655],[-0.281,43.643],[-0.28,43.618],[-0.247,43.616],[-0.242,43.583],[-0.177,43.597],[-0.16,43.581],[-0.097,43.582],[-0.094,43.544],[-0.066,43.548],[-0.04,43.513],[-0.05,43.492],[-0.018,43.472],[-0.066,43.463],[-0.071,43.435],[-0.051,43.42],[-0.067,43.41],[-0.002,43.445],[0.01,43.422],[-0.006,43.373],[0.029,43.346],[0.01,43.325],[-0.025,43.33],[-0.046,43.301],[-0.017,43.27],[-0.049,43.217],[-0.074,43.222],[-0.068,43.177],[-0.106,43.167],[-0.118,43.18],[-0.146,43.128],[-0.194,43.115],[-0.199,43.064],[-0.182,43.053],[-0.258,43.038],[-0.26,43.014],[-0.287,43.006],[-0.282,42.934],[-0.327,42.916],[-0.307,42.87],[-0.322,42.837],[-0.347,42.838],[-0.383,42.801],[-0.441,42.795],[-0.505,42.827],[-0.551,42.778],[-0.571,42.783],[-0.569,42.807],[-0.599,42.805],[-0.602,42.831],[-0.678,42.884],[-0.732,42.896],[-0.731,42.945],[-0.753,42.968],[-0.944,42.953],[-1.115,43.024],[-1.142,43.008],[-1.164,43.035],[-1.23,43.055],[-1.263,43.043],[-1.309,43.069],[-1.27,43.119],[-1.345,43.094],[-1.354,43.028],[-1.441,43.046],[-1.473,43.087],[-1.415,43.128],[-1.402,43.178],[-1.382,43.19],[-1.389,43.259],[-1.535,43.295],[-1.565,43.288],[-1.577,43.25],[-1.609,43.252],[-1.624,43.306],[-1.669,43.315],[-1.73,43.296],[-1.738,43.33],[-1.787,43.351],[-1.792,43.371],[-1.666,43.389],[-1.605,43.43],[-1.448,43.642],[-1.306,44.171],[-1.255,44.457],[-1.26,44.543],[-1.212,44.6],[-1.195,44.657],[-1.142,44.659],[-1.149,44.64],[-1.004,44.648],[-1.019,44.678],[-1.069,44.696],[-1.037,44.692],[-1.051,44.706],[-1.168,44.776],[-1.174,44.745],[-1.233,44.693],[-1.245,44.623],[-1.262,44.632],[-1.162,45.3],[-1.156,45.476],[-1.091,45.562],[-0.989,45.585],[-1.022,45.623],[-1.043,45.618],[-1.209,45.697],[-1.23,45.689],[-1.196,45.674],[-1.23,45.677],[-1.243,45.782],[-1.134,45.803],[-1.17,45.856],[-1.114,45.859],[-1.074,45.914],[-1.077,45.937],[-1.1,45.944],[-1.064,45.95],[-1.121,46.003],[-1.063,45.994],[-1.053,46.011],[-1.101,46.094],[-1.143,46.106],[-1.128,46.127],[-1.173,46.138],[-1.161,46.155],[-1.208,46.146],[-1.241,46.163],[-1.202,46.189],[-1.199,46.213],[-1.111,46.261],[-1.124,46.322],[-1.075,46.318],[-1.053,46.349],[-0.975,46.351],[-0.93,46.372],[-0.963,46.323],[-0.931,46.31],[-0.887,46.327],[-0.849,46.318],[-0.84,46.34],[-0.804,46.343],[-0.803,46.325],[-0.722,46.302],[-0.698,46.325],[-0.648,46.317],[-0.603,46.361],[-0.562,46.36],[-0.538,46.386],[-0.61,46.414],[-0.621,46.39],[-0.641,46.397],[-0.637,46.432],[-0.608,46.455],[-0.644,46.522],[-0.608,46.526],[-0.602,46.548],[-0.625,46.575],[-0.614,46.622],[-0.659,46.636],[-0.637,46.663],[-0.681,46.687],[-0.656,46.701],[-0.727,46.766],[-0.699,46.811],[-0.782,46.843],[-0.831,46.885],[-0.807,46.92],[-0.902,46.971],[-0.853,46.971],[-0.844,46.989],[-0.788,47.005],[-0.716,46.984],[-0.671,47.003],[-0.595,46.998],[-0.543,47.032],[-0.557,47.064],[-0.494,47.083],[-0.46,47.082],[-0.48,47.054],[-0.407,47.067],[-0.396,47.092],[-0.241,47.106],[-0.206,47.093],[-0.18,47.108],[-0.141,47.097],[-0.179,47.07],[-0.129,47.054],[-0.102,47.065],[-0.086,47.101],[-0.036,47.086],[-0.027,47.106],[-0.041,47.114],[-0.012,47.156],[0.019,47.176],[0.049,47.169],[0.078,47.146],[0.081,47.119],[0.123,47.129],[0.163,47.101],[0.183,47.114],[0.201,47.091],[0.176,47.061],[0.208,47.053],[0.246,47.071],[0.268,47.068],[0.268,47.043],[0.305,47.053],[0.313,46.998],[0.292,46.989],[0.324,46.931],[0.367,46.95],[0.439,46.93],[0.505,46.96],[0.598,46.957],[0.568,47.006],[0.619,47.007],[0.633,46.987],[0.693,46.974],[0.704,46.903],[0.754,46.86],[0.77,46.865],[0.767,46.851],[0.794,46.851],[0.815,46.789],[0.913,46.726],[0.928,46.693],[0.903,46.68],[0.918,46.651],[0.894,46.629],[0.916,46.597],[1.015,46.568],[1.023,46.536],[1.091,46.538],[1.146,46.506],[1.133,46.498],[1.157,46.469],[1.136,46.471],[1.152,46.449],[1.213,46.432],[1.182,46.376],[1.21,46.39],[1.22,46.366],[1.303,46.371],[1.323,46.385],[1.314,46.395],[1.356,46.4],[1.415,46.347]],[[-0.103,43.359],[-0.087,43.336],[-0.116,43.332],[-0.11,43.312],[-0.072,43.31],[-0.065,43.355],[-0.093,43.374],[-0.103,43.359]],[[-0.103,43.243],[-0.079,43.272],[-0.089,43.301],[-0.121,43.303],[-0.14,43.27],[-0.121,43.241],[-0.103,43.243]]],[[[-1.481,46.21],[-1.413,46.23],[-1.439,46.216],[-1.429,46.206],[-1.293,46.187],[-1.28,46.163],[-1.255,46.164],[-1.28,46.144],[-1.378,46.17],[-1.462,46.202],[-1.535,46.203],[-1.563,46.244],[-1.495,46.256],[-1.475,46.233],[-1.515,46.227],[-1.481,46.21]]],[[[-1.25,45.846],[-1.27,45.882],[-1.388,45.955],[-1.412,46.048],[-1.37,46.039],[-1.322,45.998],[-1.24,45.986],[-1.234,45.927],[-1.187,45.887],[-1.208,45.85],[-1.195,45.829],[-1.226,45.804],[-1.25,45.846]]],[[[-1.239,44.593],[-1.234,44.584],[-1.251,44.576],[-1.239,44.593]]]]}},{"type":"Feature","properties":{"code":"76","nom":"Occitanie"},"geometry":{"type":"MultiPolygon","coordinates":[[[[1.786,42.574],[1.726,42.59],[1.736,42.617],[1.602,42.625],[1.549,42.656],[1.479,42.652],[1.477,42.613],[1.438,42.603],[1.389,42.687],[1.351,42.703],[1.357,42.719],[1.229,42.728],[1.166,42.709],[1.079,42.788],[0.986,42.787],[0.96,42.806],[0.926,42.789],[0.858,42.826],[0.708,42.861],[0.659,42.839],[0.671,42.805],[0.645,42.784],[0.667,42.775],[0.642,42.755],[0.68,42.723],[0.676,42.691],[0.597,42.706],[0.423,42.691],[0.36,42.724],[0.295,42.673],[0.26,42.716],[0.176,42.737],[0.002,42.686],[-0.06,42.693],[-0.069,42.718],[-0.107,42.721],[-0.161,42.798],[-0.189,42.787],[-0.306,42.841],[-0.327,42.916],[-0.282,42.934],[-0.293,42.993],[-0.26,43.014],[-0.261,43.036],[-0.182,43.053],[-0.199,43.064],[-0.194,43.115],[-0.146,43.128],[-0.118,43.18],[-0.106,43.167],[-0.068,43.177],[-0.074,43.222],[-0.049,43.217],[-0.017,43.27],[-0.046,43.301],[-0.025,43.33],[0.01,43.325],[0.029,43.346],[-0.006,43.373],[0.01,43.422],[-0.002,43.445],[-0.067,43.41],[-0.051,43.42],[-0.071,43.435],[-0.066,43.463],[-0.018,43.472],[-0.05,43.492],[-0.04,43.513],[-0.066,43.548],[-0.094,43.544],[-0.097,43.582],[-0.16,43.581],[-0.177,43.597],[-0.242,43.583],[-0.247,43.616],[-0.278,43.616],[-0.282,43.641],[-0.242,43.655],[-0.24,43.671],[-0.258,43.674],[-0.239,43.694],[-0.251,43.708],[-0.194,43.737],[-0.219,43.75],[-0.207,43.759],[-0.227,43.808],[-0.192,43.81],[-0.209,43.858],[-0.186,43.867],[-0.239,43.898],[-0.179,43.938],[-0.095,43.929],[-0.093,43.949],[-0.07,43.945],[-0.036,43.984],[0.007,43.954],[-0.024,43.93],[0.059,43.897],[0.077,43.916],[0.056,43.961],[0.127,44.002],[0.158,43.973],[0.19,44.015],[0.231,44.023],[0.303,43.991],[0.317,44.01],[0.382,44.006],[0.442,44.029],[0.46,44.055],[0.555,44.055],[0.594,44.079],[0.663,44.024],[0.739,44.061],[0.757,44.107],[0.799,44.111],[0.789,44.144],[0.867,44.126],[0.894,44.138],[0.889,44.172],[0.853,44.184],[0.906,44.19],[0.928,44.267],[0.951,44.275],[0.869,44.31],[0.896,44.346],[0.896,44.382],[0.92,44.384],[0.942,44.345],[0.952,44.362],[1.049,44.362],[1.064,44.379],[1.057,44.428],[1.028,44.434],[1.016,44.506],[0.982,44.544],[1.013,44.536],[1.074,44.577],[1.103,44.572],[1.095,44.592],[1.153,44.638],[1.147,44.671],[1.225,44.684],[1.316,44.74],[1.323,44.765],[1.298,44.774],[1.298,44.796],[1.364,44.812],[1.366,44.846],[1.442,44.878],[1.412,44.91],[1.442,44.917],[1.409,45.006],[1.537,45.047],[1.545,45.029],[1.63,45.034],[1.751,44.956],[1.749,44.938],[1.801,44.922],[1.909,44.978],[1.939,44.973],[1.949,44.953],[2.045,44.984],[2.105,44.92],[2.084,44.887],[2.123,44.848],[2.168,44.811],[2.17,44.777],[2.148,44.767],[2.156,44.742],[2.13,44.699],[2.155,44.7],[2.179,44.674],[2.162,44.663],[2.174,44.635],[2.207,44.616],[2.216,44.651],[2.327,44.67],[2.349,44.641],[2.468,44.643],[2.5,44.69],[2.56,44.721],[2.545,44.725],[2.551,44.756],[2.6,44.793],[2.603,44.843],[2.623,44.866],[2.654,44.87],[2.738,44.941],[2.776,44.909],[2.774,44.855],[2.804,44.874],[2.86,44.874],[2.855,44.85],[2.888,44.789],[2.92,44.794],[2.938,44.775],[2.911,44.762],[2.934,44.75],[2.938,44.681],[2.982,44.645],[3.017,44.714],[3.039,44.715],[3.026,44.729],[3.049,44.763],[3.048,44.804],[3.073,44.837],[3.099,44.833],[3.104,44.887],[3.141,44.903],[3.189,44.861],[3.236,44.888],[3.226,44.91],[3.25,44.916],[3.248,44.94],[3.286,44.926],[3.373,44.975],[3.371,44.96],[3.415,44.942],[3.42,44.895],[3.478,44.81],[3.571,44.836],[3.589,44.826],[3.594,44.877],[3.63,44.881],[3.672,44.857],[3.663,44.83],[3.743,44.839],[3.809,44.765],[3.834,44.776],[3.835,44.748],[3.875,44.741],[3.862,44.712],[3.884,44.698],[3.87,44.678],[3.895,44.651],[3.905,44.593],[3.951,44.571],[3.988,44.473],[4.068,44.405],[4.04,44.391],[4.058,44.363],[4.036,44.33],[4.047,44.319],[4.127,44.338],[4.143,44.313],[4.178,44.318],[4.258,44.265],[4.326,44.338],[4.391,44.347],[4.395,44.291],[4.44,44.283],[4.454,44.34],[4.506,44.344],[4.549,44.326],[4.559,44.302],[4.638,44.283],[4.678,44.234],[4.674,44.214],[4.707,44.214],[4.722,44.187],[4.706,44.108],[4.721,44.082],[4.761,44.086],[4.845,43.992],[4.812,43.988],[4.814,43.964],[4.779,43.938],[4.642,43.867],[4.641,43.851],[4.667,43.846],[4.642,43.831],[4.652,43.784],[4.612,43.725],[4.627,43.685],[4.54,43.707],[4.487,43.699],[4.426,43.624],[4.473,43.612],[4.461,43.589],[4.334,43.535],[4.314,43.556],[4.325,43.528],[4.24,43.499],[4.23,43.46],[4.127,43.489],[4.117,43.508],[4.139,43.532],[4.117,43.549],[3.995,43.548],[3.886,43.507],[3.797,43.441],[3.725,43.416],[3.726,43.401],[3.643,43.383],[3.51,43.272],[3.43,43.29],[3.369,43.279],[3.17,43.159],[3.093,43.069],[3.051,42.986],[3.04,42.931],[3.061,42.917],[3.04,42.711],[3.024,42.704],[3.039,42.701],[3.052,42.544],[3.141,42.515],[3.128,42.487],[3.155,42.477],[3.174,42.436],[3.086,42.425],[3.04,42.474],[2.967,42.465],[2.947,42.482],[2.918,42.456],[2.84,42.459],[2.777,42.412],[2.733,42.424],[2.674,42.405],[2.651,42.386],[2.675,42.342],[2.571,42.358],[2.533,42.333],[2.481,42.341],[2.432,42.393],[2.257,42.438],[2.202,42.416],[2.151,42.421],[2.085,42.362],[2.015,42.347],[1.965,42.382],[1.937,42.454],[1.891,42.448],[1.824,42.486],[1.731,42.493],[1.735,42.549],[1.786,42.574]],[[1.96,42.47],[1.959,42.454],[1.984,42.447],[2.014,42.452],[1.988,42.469],[1.998,42.485],[1.983,42.495],[1.96,42.47]]],[[[-0.103,43.243],[-0.121,43.241],[-0.14,43.27],[-0.122,43.301],[-0.089,43.301],[-0.079,43.272],[-0.103,43.243]]],[[[-0.103,43.359],[-0.093,43.374],[-0.065,43.355],[-0.07,43.31],[-0.11,43.312],[-0.116,43.332],[-0.087,43.336],[-0.103,43.359]]]]}},{"type":"Feature","properties":{"code":"84","nom":"Auvergne-Rhône-Alpes"},"geometry":{"type":"Polygon","coordinates":[[[4.78,46.177],[4.941,46.52],[4.95,46.501],[4.984,46.515],[5.056,46.484],[5.166,46.503],[5.167,46.519],[5.202,46.508],[5.215,46.468],[5.315,46.445],[5.324,46.428],[5.299,46.413],[5.378,46.382],[5.363,46.37],[5.401,46.34],[5.405,46.31],[5.424,46.348],[5.438,46.316],[5.467,46.323],[5.457,46.274],[5.474,46.264],[5.594,46.294],[5.643,46.345],[5.644,46.325],[5.715,46.309],[5.725,46.261],[5.869,46.265],[6.057,46.416],[6.098,46.409],[6.17,46.366],[6.102,46.285],[6.124,46.251],[5.975,46.215],[5.964,46.197],[5.995,46.183],[5.957,46.128],[6.052,46.151],[6.136,46.142],[6.222,46.201],[6.294,46.225],[6.31,46.256],[6.267,46.247],[6.238,46.278],[6.258,46.326],[6.305,46.367],[6.345,46.37],[6.389,46.34],[6.513,46.405],[6.805,46.394],[6.772,46.35],[6.864,46.28],[6.804,46.204],[6.797,46.139],[6.9,46.124],[6.876,46.048],[6.938,46.063],[7.01,45.997],[7.023,45.978],[7.009,45.969],[7.038,45.954],[7.045,45.922],[7.018,45.914],[6.991,45.868],[6.941,45.847],[6.879,45.849],[6.867,45.824],[6.819,45.836],[6.801,45.781],[6.808,45.725],[6.856,45.686],[6.903,45.681],[6.915,45.652],[7.001,45.64],[6.978,45.587],[6.997,45.569],[7.0,45.504],[7.055,45.495],[7.048,45.473],[7.103,45.468],[7.114,45.433],[7.184,45.407],[7.165,45.361],[7.111,45.327],[7.138,45.256],[7.072,45.21],[7.047,45.226],[6.966,45.208],[6.947,45.171],[6.892,45.167],[6.892,45.137],[6.848,45.127],[6.768,45.16],[6.74,45.137],[6.68,45.14],[6.63,45.109],[6.577,45.123],[6.539,45.099],[6.51,45.109],[6.48,45.094],[6.486,45.056],[6.365,45.07],[6.366,45.101],[6.334,45.123],[6.294,45.109],[6.261,45.127],[6.232,45.111],[6.245,45.072],[6.22,45.065],[6.204,45.012],[6.324,44.999],[6.323,44.953],[6.359,44.941],[6.354,44.853],[6.289,44.874],[6.25,44.852],[6.133,44.864],[6.056,44.816],[6.016,44.835],[5.95,44.805],[5.98,44.781],[5.951,44.76],[5.882,44.747],[5.827,44.76],[5.801,44.708],[5.83,44.691],[5.791,44.653],[5.754,44.663],[5.728,44.639],[5.642,44.651],[5.647,44.612],[5.597,44.543],[5.665,44.502],[5.63,44.501],[5.612,44.47],[5.458,44.499],[5.464,44.448],[5.498,44.437],[5.476,44.42],[5.418,44.425],[5.443,44.391],[5.432,44.371],[5.491,44.338],[5.521,44.351],[5.547,44.33],[5.631,44.333],[5.608,44.307],[5.638,44.299],[5.647,44.267],[5.687,44.267],[5.673,44.246],[5.686,44.195],[5.652,44.19],[5.643,44.171],[5.682,44.164],[5.678,44.146],[5.631,44.151],[5.64,44.168],[5.602,44.191],[5.575,44.187],[5.564,44.171],[5.583,44.158],[5.541,44.133],[5.455,44.119],[5.436,44.152],[5.383,44.155],[5.385,44.201],[5.355,44.215],[5.303,44.205],[5.252,44.231],[5.231,44.212],[5.155,44.231],[5.147,44.276],[5.168,44.315],[5.108,44.277],[5.061,44.308],[4.933,44.262],[4.879,44.261],[4.827,44.228],[4.805,44.304],[4.762,44.325],[4.651,44.33],[4.649,44.27],[4.559,44.302],[4.549,44.326],[4.504,44.344],[4.454,44.34],[4.44,44.283],[4.4,44.288],[4.403,44.334],[4.388,44.347],[4.29,44.317],[4.258,44.265],[4.178,44.318],[4.143,44.313],[4.127,44.338],[4.051,44.317],[4.036,44.33],[4.058,44.363],[4.04,44.391],[4.068,44.405],[3.988,44.473],[3.955,44.567],[3.924,44.571],[3.908,44.608],[3.87,44.678],[3.884,44.698],[3.862,44.712],[3.878,44.737],[3.835,44.748],[3.842,44.772],[3.809,44.765],[3.743,44.839],[3.663,44.83],[3.672,44.857],[3.63,44.881],[3.594,44.877],[3.589,44.826],[3.571,44.836],[3.482,44.808],[3.42,44.895],[3.415,44.942],[3.371,44.96],[3.372,44.976],[3.286,44.926],[3.248,44.94],[3.25,44.916],[3.226,44.91],[3.236,44.888],[3.189,44.861],[3.141,44.903],[3.104,44.887],[3.099,44.833],[3.073,44.837],[3.048,44.804],[3.049,44.763],[3.026,44.729],[3.039,44.715],[3.017,44.714],[2.982,44.645],[2.938,44.681],[2.934,44.75],[2.911,44.762],[2.938,44.775],[2.92,44.794],[2.888,44.789],[2.855,44.85],[2.86,44.874],[2.804,44.874],[2.774,44.855],[2.776,44.909],[2.738,44.941],[2.603,44.843],[2.6,44.793],[2.551,44.756],[2.545,44.725],[2.56,44.721],[2.5,44.69],[2.483,44.65],[2.355,44.64],[2.327,44.67],[2.216,44.651],[2.207,44.616],[2.169,44.639],[2.162,44.663],[2.179,44.674],[2.155,44.7],[2.13,44.699],[2.156,44.742],[2.148,44.767],[2.17,44.777],[2.168,44.811],[2.084,44.886],[2.107,44.91],[2.063,44.977],[2.136,44.99],[2.141,45.007],[2.095,45.056],[2.14,45.087],[2.175,45.082],[2.19,45.116],[2.179,45.136],[2.232,45.164],[2.201,45.18],[2.189,45.222],[2.316,45.322],[2.36,45.337],[2.369,45.386],[2.351,45.413],[2.477,45.37],[2.523,45.383],[2.521,45.403],[2.488,45.418],[2.517,45.553],[2.461,45.596],[2.487,45.642],[2.52,45.641],[2.523,45.711],[2.485,45.748],[2.445,45.758],[2.388,45.827],[2.431,45.834],[2.45,45.848],[2.443,45.867],[2.492,45.864],[2.502,45.888],[2.555,45.913],[2.542,45.922],[2.564,45.956],[2.612,45.972],[2.594,45.99],[2.603,46.033],[2.571,46.047],[2.55,46.086],[2.56,46.173],[2.526,46.188],[2.515,46.24],[2.489,46.248],[2.47,46.288],[2.421,46.285],[2.421,46.31],[2.392,46.33],[2.365,46.311],[2.301,46.342],[2.338,46.364],[2.287,46.383],[2.283,46.449],[2.365,46.518],[2.497,46.534],[2.537,46.52],[2.615,46.553],[2.6,46.595],[2.568,46.609],[2.588,46.616],[2.593,46.647],[2.567,46.654],[2.605,46.671],[2.624,46.657],[2.623,46.69],[2.674,46.702],[2.729,46.748],[2.759,46.718],[2.795,46.734],[2.847,46.727],[2.845,46.743],[2.913,46.791],[3.018,46.8],[3.067,46.745],[3.199,46.68],[3.27,46.717],[3.347,46.684],[3.379,46.712],[3.422,46.714],[3.453,46.69],[3.442,46.662],[3.482,46.651],[3.514,46.684],[3.561,46.689],[3.548,46.722],[3.598,46.724],[3.576,46.75],[3.593,46.763],[3.629,46.749],[3.638,46.707],[3.724,46.626],[3.713,46.61],[3.737,46.602],[3.742,46.54],[3.805,46.519],[3.839,46.531],[3.865,46.49],[3.956,46.492],[3.952,46.478],[4.001,46.462],[3.977,46.399],[3.985,46.33],[4.005,46.327],[3.946,46.321],[3.945,46.3],[3.897,46.292],[3.898,46.21],[3.973,46.203],[3.99,46.169],[4.104,46.198],[4.133,46.177],[4.187,46.175],[4.208,46.195],[4.225,46.178],[4.255,46.188],[4.25,46.158],[4.281,46.156],[4.327,46.185],[4.374,46.187],[4.363,46.2],[4.389,46.213],[4.406,46.296],[4.459,46.297],[4.504,46.267],[4.546,46.274],[4.56,46.295],[4.619,46.265],[4.637,46.301],[4.679,46.306],[4.71,46.279],[4.682,46.255],[4.737,46.232],[4.72,46.228],[4.736,46.212],[4.727,46.179],[4.78,46.177]],[[4.893,44.365],[4.87,44.345],[4.895,44.338],[4.882,44.325],[4.892,44.304],[4.987,44.293],[5.024,44.361],[5.057,44.367],[5.071,44.383],[5.016,44.393],[5.019,44.416],[4.973,44.432],[4.919,44.408],[4.893,44.365]]]}},{"type":"Feature","properties":{"code":"93","nom":"Provence-Alpes-Côte d'Azur"},"geometry":{"type":"MultiPolygon","coordinates":[[[[6.948,44.655],[6.968,44.62],[6.949,44.619],[6.915,44.559],[6.853,44.529],[6.877,44.481],[6.948,44.43],[6.893,44.421],[6.887,44.361],[6.923,44.351],[6.958,44.295],[6.996,44.28],[7.009,44.235],[7.186,44.201],[7.281,44.141],[7.345,44.145],[7.358,44.116],[7.425,44.112],[7.43,44.13],[7.62,44.15],[7.637,44.177],[7.685,44.174],[7.667,44.131],[7.719,44.083],[7.714,44.061],[7.662,44.028],[7.67,43.998],[7.652,43.974],[7.569,43.947],[7.562,43.9],[7.498,43.872],[7.53,43.788],[7.487,43.749],[7.458,43.76],[7.406,43.719],[7.356,43.721],[7.33,43.702],[7.35,43.687],[7.331,43.675],[7.315,43.707],[7.304,43.685],[7.284,43.698],[7.241,43.688],[7.212,43.647],[7.157,43.653],[7.122,43.587],[7.136,43.545],[7.096,43.571],[7.038,43.535],[7.017,43.551],[6.963,43.542],[6.938,43.516],[6.957,43.501],[6.931,43.484],[6.924,43.45],[6.892,43.428],[6.86,43.433],[6.856,43.412],[6.745,43.418],[6.717,43.347],[6.584,43.277],[6.593,43.262],[6.676,43.278],[6.698,43.266],[6.664,43.241],[6.681,43.2],[6.643,43.187],[6.647,43.168],[6.618,43.159],[6.602,43.182],[6.562,43.189],[6.497,43.151],[6.384,43.144],[6.36,43.12],[6.364,43.086],[6.275,43.121],[6.201,43.116],[6.155,43.08],[6.152,43.037],[6.173,43.033],[6.149,43.026],[6.091,43.035],[6.132,43.048],[6.114,43.084],[6.022,43.078],[6.005,43.104],[5.926,43.102],[5.934,43.119],[5.921,43.124],[5.881,43.105],[5.91,43.1],[5.897,43.08],[5.938,43.085],[5.947,43.068],[5.89,43.078],[5.859,43.048],[5.829,43.049],[5.792,43.069],[5.808,43.115],[5.767,43.116],[5.771,43.139],[5.695,43.144],[5.687,43.18],[5.624,43.187],[5.604,43.16],[5.536,43.214],[5.5,43.197],[5.342,43.213],[5.376,43.255],[5.345,43.282],[5.373,43.294],[5.314,43.36],[5.229,43.329],[5.094,43.331],[5.024,43.339],[4.987,43.392],[5.001,43.398],[4.975,43.401],[4.968,43.426],[4.919,43.431],[4.894,43.404],[4.903,43.43],[4.882,43.419],[4.861,43.454],[4.877,43.411],[4.824,43.424],[4.861,43.401],[4.839,43.395],[4.872,43.39],[4.829,43.376],[4.883,43.356],[4.918,43.38],[4.835,43.329],[4.586,43.36],[4.556,43.383],[4.593,43.406],[4.588,43.423],[4.531,43.453],[4.23,43.46],[4.24,43.499],[4.325,43.528],[4.314,43.556],[4.334,43.535],[4.461,43.589],[4.473,43.612],[4.426,43.624],[4.487,43.699],[4.54,43.707],[4.627,43.685],[4.612,43.725],[4.652,43.784],[4.642,43.831],[4.667,43.846],[4.641,43.851],[4.642,43.867],[4.779,43.938],[4.814,43.964],[4.812,43.988],[4.844,43.989],[4.788,44.065],[4.758,44.088],[4.723,44.08],[4.707,44.104],[4.722,44.187],[4.707,44.214],[4.674,44.214],[4.678,44.234],[4.65,44.261],[4.651,44.33],[4.78,44.319],[4.805,44.304],[4.827,44.228],[4.879,44.261],[4.933,44.262],[5.061,44.308],[5.108,44.277],[5.168,44.315],[5.147,44.276],[5.155,44.231],[5.231,44.212],[5.252,44.231],[5.303,44.205],[5.355,44.215],[5.385,44.201],[5.383,44.155],[5.436,44.152],[5.455,44.119],[5.541,44.133],[5.583,44.158],[5.564,44.171],[5.575,44.187],[5.602,44.191],[5.64,44.168],[5.631,44.151],[5.678,44.146],[5.682,44.164],[5.643,44.171],[5.652,44.19],[5.686,44.195],[5.673,44.246],[5.687,44.267],[5.647,44.267],[5.638,44.299],[5.608,44.307],[5.631,44.333],[5.547,44.33],[5.521,44.351],[5.491,44.338],[5.432,44.371],[5.443,44.391],[5.418,44.425],[5.476,44.42],[5.498,44.437],[5.464,44.448],[5.458,44.499],[5.612,44.47],[5.63,44.501],[5.665,44.502],[5.597,44.543],[5.647,44.612],[5.642,44.651],[5.728,44.639],[5.754,44.663],[5.791,44.653],[5.83,44.691],[5.801,44.708],[5.827,44.76],[5.882,44.747],[5.951,44.76],[5.98,44.781],[5.95,44.805],[6.016,44.835],[6.056,44.816],[6.133,44.864],[6.25,44.852],[6.289,44.874],[6.354,44.853],[6.359,44.941],[6.323,44.953],[6.324,44.999],[6.204,45.012],[6.22,45.065],[6.245,45.072],[6.229,45.108],[6.261,45.127],[6.294,45.109],[6.334,45.123],[6.366,45.101],[6.365,45.07],[6.452,45.052],[6.487,45.057],[6.48,45.094],[6.51,45.109],[6.625,45.115],[6.662,45.072],[6.674,45.02],[6.745,45.014],[6.738,44.989],[6.765,44.962],[6.744,44.937],[6.761,44.933],[6.751,44.906],[6.863,44.851],[6.913,44.845],[6.931,44.864],[7.024,44.823],[6.999,44.79],[7.077,44.681],[6.987,44.69],[6.948,44.655]],[[5.118,43.513],[5.046,43.522],[5.013,43.554],[5.001,43.474],[5.052,43.464],[5.061,43.403],[5.137,43.4],[5.198,43.451],[5.227,43.453],[5.206,43.492],[5.146,43.458],[5.118,43.513]]],[[[5.306,43.277],[5.288,43.261],[5.304,43.276],[5.292,43.28],[5.324,43.286],[5.306,43.277]]],[[[6.435,43.016],[6.473,43.047],[6.511,43.048],[6.471,43.017],[6.438,43.004],[6.435,43.016]]],[[[6.397,42.993],[6.37,42.999],[6.394,43.014],[6.42,43.014],[6.397,42.993]]],[[[6.244,43.02],[6.251,43.0],[6.206,42.982],[6.17,42.997],[6.244,43.02]]],[[[4.893,44.365],[4.919,44.408],[4.973,44.432],[5.019,44.416],[5.016,44.393],[5.071,44.383],[5.058,44.37],[5.024,44.361],[4.987,44.293],[4.892,44.304],[4.882,44.325],[4.895,44.338],[4.87,44.345],[4.893,44.365]]]]}},{"type":"Feature","properties":{"code":"94","nom":"Corse"},"geometry":{"type":"MultiPolygon","coordinates":[[[[9.402,41.859],[9.406,41.714],[9.372,41.679],[9.385,41.646],[9.349,41.638],[9.355,41.617],[9.308,41.628],[9.281,41.597],[9.368,41.591],[9.343,41.559],[9.273,41.529],[9.285,41.517],[9.268,41.501],[9.288,41.484],[9.224,41.442],[9.215,41.414],[9.262,41.429],[9.26,41.414],[9.22,41.367],[9.18,41.366],[9.133,41.4],[9.098,41.391],[9.122,41.441],[9.07,41.445],[9.08,41.477],[9.042,41.457],[8.996,41.485],[8.984,41.474],[8.96,41.492],[8.92,41.489],[8.878,41.524],[8.841,41.52],[8.853,41.547],[8.782,41.566],[8.803,41.573],[8.774,41.592],[8.794,41.633],[8.872,41.647],[8.914,41.691],[8.813,41.714],[8.783,41.699],[8.775,41.741],[8.707,41.722],[8.705,41.739],[8.659,41.74],[8.728,41.774],[8.711,41.801],[8.771,41.811],[8.785,41.831],[8.751,41.845],[8.788,41.85],[8.779,41.884],[8.803,41.893],[8.752,41.933],[8.719,41.908],[8.607,41.895],[8.623,41.935],[8.592,41.964],[8.648,41.968],[8.669,41.982],[8.66,42.012],[8.747,42.049],[8.719,42.064],[8.7,42.112],[8.659,42.101],[8.612,42.135],[8.58,42.129],[8.594,42.144],[8.581,42.151],[8.559,42.146],[8.593,42.167],[8.561,42.172],[8.586,42.182],[8.568,42.205],[8.574,42.228],[8.54,42.237],[8.693,42.268],[8.66,42.302],[8.602,42.309],[8.628,42.332],[8.615,42.35],[8.554,42.333],[8.545,42.375],[8.608,42.386],[8.606,42.416],[8.657,42.417],[8.664,42.434],[8.648,42.442],[8.68,42.468],[8.649,42.474],[8.665,42.514],[8.72,42.525],[8.709,42.577],[8.781,42.557],[8.805,42.571],[8.803,42.603],[8.867,42.608],[8.931,42.645],[9.015,42.641],[9.059,42.66],[9.057,42.695],[9.125,42.732],[9.221,42.736],[9.301,42.678],[9.345,42.736],[9.342,42.798],[9.31,42.834],[9.34,42.866],[9.322,42.9],[9.361,42.925],[9.34,42.993],[9.427,43.01],[9.464,42.986],[9.452,42.962],[9.493,42.806],[9.446,42.674],[9.533,42.548],[9.532,42.372],[9.56,42.282],[9.559,42.197],[9.55,42.104],[9.417,41.961],[9.402,41.859]]]]}}]}